start=new Date('2021-08-25T00:00:00.000Z').valueOf();
sats=[{"LAUNCH_DATE":"2021-03-14","CENTER_NAME":"EARTH","MEAN_ANOMALY":"277.4763","TLE_LINE1":"1 47869U 21021K   21236.89708648 -.00001400  00000-0 -75097-4 0  9993","ARG_OF_PERICENTER":"82.6471","REF_FRAME":"TEME","MEAN_ELEMENT_THEORY":"SGP4","EPHEMERIS_TYPE":"0","MEAN_MOTION":"15.06389496","DECAY_DATE":null,"SITE":"AFETR","BSTAR":"-0.00007509700000","OBJECT_TYPE":"PAYLOAD","ECCENTRICITY":"0.00021520","RCS_SIZE":"LARGE","REV_AT_EPOCH":"2657","FILE":"3102580","OBJECT_ID":"2021-021K","NORAD_CAT_ID":"47869","MEAN_MOTION_DOT":"-0.00001400","SEMIMAJOR_AXIS":"6925.381","GP_ID":"183386813","CLASSIFICATION_TYPE":"U","INCLINATION":"53.0559","TIME_SYSTEM":"UTC","OBJECT_NAME":"STARLINK-2324","MEAN_MOTION_DDOT":"0.0000000000000","COUNTRY_CODE":"US","PERIAPSIS":"545.755","TLE_LINE2":"2 47869  53.0559 143.7271 0002152  82.6471 277.4763 15.06389496 26573","APOAPSIS":"548.736","EPOCH":"2021-08-24T21:31:48.271872","PERIOD":"95.593","ELEMENT_SET_NO":"999","RA_OF_ASC_NODE":"143.7271"},{"MEAN_ELEMENT_THEORY":"SGP4","EPHEMERIS_TYPE":"0","TLE_LINE1":"1 47870U 21021L   21236.50865312 -.00000916  00000-0 -42599-4 0  9997","ARG_OF_PERICENTER":"44.1626","REF_FRAME":"TEME","LAUNCH_DATE":"2021-03-14","CENTER_NAME":"EARTH","MEAN_ANOMALY":"315.9493","SEMIMAJOR_AXIS":"6925.363","GP_ID":"183360635","CLASSIFICATION_TYPE":"U","INCLINATION":"53.0560","TIME_SYSTEM":"UTC","FILE":"3102457","OBJECT_ID":"2021-021L","MEAN_MOTION_DOT":"-0.00000916","NORAD_CAT_ID":"47870","SITE":"AFETR","BSTAR":"-0.00004259900000","OBJECT_TYPE":"PAYLOAD","ECCENTRICITY":"0.00016320","RCS_SIZE":"LARGE","REV_AT_EPOCH":"2595","MEAN_MOTION":"15.06395291","DECAY_DATE":null,"COUNTRY_CODE":"US","OBJECT_NAME":"STARLINK-2326","MEAN_MOTION_DDOT":"0.0000000000000","ELEMENT_SET_NO":"999","PERIOD":"95.592","EPOCH":"2021-08-24T12:12:27.629568","RA_OF_ASC_NODE":"170.4705","TLE_LINE2":"2 47870  53.0560 170.4705 0001632  44.1626 315.9493 15.06395291 25952","APOAPSIS":"548.358","PERIAPSIS":"546.098"},{"LAUNCH_DATE":"2021-03-14","CENTER_NAME":"EARTH","MEAN_ANOMALY":"284.2714","ARG_OF_PERICENTER":"75.8520","TLE_LINE1":"1 47871U 21021M   21236.89338736  .00000389  00000-0  45024-4 0  9993","REF_FRAME":"TEME","MEAN_ELEMENT_THEORY":"SGP4","EPHEMERIS_TYPE":"0","DECAY_DATE":null,"MEAN_MOTION":"15.06397545","BSTAR":"0.00004502400000","SITE":"AFETR","REV_AT_EPOCH":"2646","RCS_SIZE":"LARGE","OBJECT_TYPE":"PAYLOAD","ECCENTRICITY":"0.00022080","OBJECT_ID":"2021-021M","FILE":"3102580","MEAN_MOTION_DOT":"0.00000389","NORAD_CAT_ID":"47871","CLASSIFICATION_TYPE":"U","GP_ID":"183387815","SEMIMAJOR_AXIS":"6925.356","INCLINATION":"53.0560","TIME_SYSTEM":"UTC","OBJECT_NAME":"STARLINK-2327","MEAN_MOTION_DDOT":"0.0000000000000","COUNTRY_CODE":"US","PERIAPSIS":"545.692","APOAPSIS":"548.750","TLE_LINE2":"2 47871  53.0560 143.7435 0002208  75.8520 284.2714 15.06397545 26465","EPOCH":"2021-08-24T21:26:28.667904","PERIOD":"95.592","ELEMENT_SET_NO":"999","RA_OF_ASC_NODE":"143.7435"},{"CENTER_NAME":"EARTH","LAUNCH_DATE":"2021-03-14","MEAN_ANOMALY":"353.9276","TLE_LINE1":"1 47872U 21021N   21236.96157881  .00019762  00000-0  14457-3 0  9992","ARG_OF_PERICENTER":"6.1793","REF_FRAME":"TEME","MEAN_ELEMENT_THEORY":"SGP4","EPHEMERIS_TYPE":"0","MEAN_MOTION":"15.73243420","DECAY_DATE":null,"SITE":"AFETR","BSTAR":"0.00014457000000","ECCENTRICITY":"0.00041680","OBJECT_TYPE":"PAYLOAD","RCS_SIZE":"LARGE","REV_AT_EPOCH":"2673","FILE":"3102580","OBJECT_ID":"2021-021N","NORAD_CAT_ID":"47872","MEAN_MOTION_DOT":"0.00019762","SEMIMAJOR_AXIS":"6727.771","GP_ID":"183386563","CLASSIFICATION_TYPE":"U","INCLINATION":"53.0465","TIME_SYSTEM":"UTC","MEAN_MOTION_DDOT":"0.0000000000000","OBJECT_NAME":"STARLINK-2328","COUNTRY_CODE":"US","PERIAPSIS":"346.832","TLE_LINE2":"2 47872  53.0465 125.3759 0004168   6.1793 353.9276 15.73243420 26734","APOAPSIS":"352.441","PERIOD":"91.531","EPOCH":"2021-08-24T23:04:40.409184","ELEMENT_SET_NO":"999","RA_OF_ASC_NODE":"125.3759"},{"OBJECT_TYPE":"PAYLOAD","ECCENTRICITY":"0.00024040","REV_AT_EPOCH":"2639","RCS_SIZE":"LARGE","SITE":"AFETR","BSTAR":"0.00007299000000","MEAN_MOTION":"15.06398713","DECAY_DATE":null,"TIME_SYSTEM":"UTC","INCLINATION":"53.0457","SEMIMAJOR_AXIS":"6925.353","GP_ID":"183360886","CLASSIFICATION_TYPE":"U","NORAD_CAT_ID":"47873","MEAN_MOTION_DOT":"0.00000805","FILE":"3102457","OBJECT_ID":"2021-021P","REF_FRAME":"TEME","TLE_LINE1":"1 47873U 21021P   21236.47688037  .00000805  00000-0  72990-4 0  9996","ARG_OF_PERICENTER":"83.0879","MEAN_ANOMALY":"277.0383","CENTER_NAME":"EARTH","LAUNCH_DATE":"2021-03-14","EPHEMERIS_TYPE":"0","MEAN_ELEMENT_THEORY":"SGP4","TLE_LINE2":"2 47873  53.0457 145.6783 0002404  83.0879 277.0383 15.06398713 26397","APOAPSIS":"548.882","PERIAPSIS":"545.553","RA_OF_ASC_NODE":"145.6783","PERIOD":"95.592","EPOCH":"2021-08-24T11:26:42.463968","ELEMENT_SET_NO":"999","OBJECT_NAME":"STARLINK-2329","MEAN_MOTION_DDOT":"0.0000000000000","COUNTRY_CODE":"US"},{"SITE":"AFETR","BSTAR":"0.00009277100000","OBJECT_TYPE":"PAYLOAD","ECCENTRICITY":"0.00039120","REV_AT_EPOCH":"2673","RCS_SIZE":"LARGE","MEAN_MOTION":"15.73238656","DECAY_DATE":null,"GP_ID":"183387565","SEMIMAJOR_AXIS":"6727.785","CLASSIFICATION_TYPE":"U","TIME_SYSTEM":"UTC","INCLINATION":"53.0475","FILE":"3102580","OBJECT_ID":"2021-021Q","MEAN_MOTION_DOT":"0.00012443","NORAD_CAT_ID":"47874","TLE_LINE1":"1 47874U 21021Q   21236.96169125  .00012443  00000-0  92771-4 0  9993","ARG_OF_PERICENTER":"15.1266","REF_FRAME":"TEME","LAUNCH_DATE":"2021-03-14","CENTER_NAME":"EARTH","MEAN_ANOMALY":"344.9868","MEAN_ELEMENT_THEORY":"SGP4","EPHEMERIS_TYPE":"0","TLE_LINE2":"2 47874  53.0475 125.3771 0003912  15.1266 344.9868 15.73238656 26734","APOAPSIS":"352.282","PERIAPSIS":"347.018","EPOCH":"2021-08-24T23:04:50.124000","PERIOD":"91.531","ELEMENT_SET_NO":"999","RA_OF_ASC_NODE":"125.3771","OBJECT_NAME":"STARLINK-2330","MEAN_MOTION_DDOT":"0.0000000000000","COUNTRY_CODE":"US"},{"OBJECT_NAME":"STARLINK-2331","MEAN_MOTION_DDOT":"0.0000000000000","COUNTRY_CODE":"US","PERIAPSIS":"545.629","APOAPSIS":"548.832","TLE_LINE2":"2 47875  53.0540 155.6549 0002312  72.9278 287.1964 15.06394441 26314","RA_OF_ASC_NODE":"155.6549","ELEMENT_SET_NO":"999","PERIOD":"95.592","EPOCH":"2021-08-24T11:14:46.023072","MEAN_ANOMALY":"287.1964","LAUNCH_DATE":"2021-03-14","CENTER_NAME":"EARTH","REF_FRAME":"TEME","ARG_OF_PERICENTER":"72.9278","TLE_LINE1":"1 47875U 21021R   21236.46858823  .00000871  00000-0  77429-4 0  9994","EPHEMERIS_TYPE":"0","MEAN_ELEMENT_THEORY":"SGP4","DECAY_DATE":null,"MEAN_MOTION":"15.06394441","RCS_SIZE":"LARGE","REV_AT_EPOCH":"2631","ECCENTRICITY":"0.00023120","OBJECT_TYPE":"PAYLOAD","BSTAR":"0.00007742900000","SITE":"AFETR","MEAN_MOTION_DOT":"0.00000871","NORAD_CAT_ID":"47875","OBJECT_ID":"2021-021R","FILE":"3102457","TIME_SYSTEM":"UTC","INCLINATION":"53.0540","CLASSIFICATION_TYPE":"U","GP_ID":"183361376","SEMIMAJOR_AXIS":"6925.366"},{"RA_OF_ASC_NODE":"153.6139","PERIOD":"95.593","ELEMENT_SET_NO":"999","EPOCH":"2021-08-24T22:07:37.649856","PERIAPSIS":"545.666","APOAPSIS":"548.810","TLE_LINE2":"2 47876  53.0561 153.6139 0002270  74.9011 285.2228 15.06391989 26339","COUNTRY_CODE":"US","MEAN_MOTION_DDOT":"0.0000000000000","OBJECT_NAME":"STARLINK-2332","NORAD_CAT_ID":"47876","MEAN_MOTION_DOT":"0.00000397","OBJECT_ID":"2021-021S","FILE":"3102580","INCLINATION":"53.0561","TIME_SYSTEM":"UTC","CLASSIFICATION_TYPE":"U","SEMIMAJOR_AXIS":"6925.373","GP_ID":"183386064","DECAY_DATE":null,"MEAN_MOTION":"15.06391989","REV_AT_EPOCH":"2633","RCS_SIZE":"LARGE","OBJECT_TYPE":"PAYLOAD","ECCENTRICITY":"0.00022700","BSTAR":"0.00004559400000","SITE":"AFETR","EPHEMERIS_TYPE":"0","MEAN_ELEMENT_THEORY":"SGP4","MEAN_ANOMALY":"285.2228","LAUNCH_DATE":"2021-03-14","CENTER_NAME":"EARTH","REF_FRAME":"TEME","ARG_OF_PERICENTER":"74.9011","TLE_LINE1":"1 47876U 21021S   21236.92196354  .00000397  00000-0  45594-4 0  9991"},{"COUNTRY_CODE":"US","MEAN_MOTION_DDOT":"0.0000000000000","OBJECT_NAME":"STARLINK-2333","RA_OF_ASC_NODE":"155.6377","PERIOD":"95.593","EPOCH":"2021-08-24T11:20:05.150112","ELEMENT_SET_NO":"999","TLE_LINE2":"2 47877  53.0538 155.6377 0002363  76.5532 283.5720 15.06389293 26253","APOAPSIS":"548.883","PERIAPSIS":"545.610","EPHEMERIS_TYPE":"0","MEAN_ELEMENT_THEORY":"SGP4","REF_FRAME":"TEME","TLE_LINE1":"1 47877U 21021T   21236.47228183 -.00001121  00000-0 -56335-4 0  9991","ARG_OF_PERICENTER":"76.5532","MEAN_ANOMALY":"283.5720","LAUNCH_DATE":"2021-03-14","CENTER_NAME":"EARTH","TIME_SYSTEM":"UTC","INCLINATION":"53.0538","GP_ID":"183360386","SEMIMAJOR_AXIS":"6925.381","CLASSIFICATION_TYPE":"U","NORAD_CAT_ID":"47877","MEAN_MOTION_DOT":"-0.00001121","FILE":"3102457","OBJECT_ID":"2021-021T","OBJECT_TYPE":"PAYLOAD","ECCENTRICITY":"0.00023630","RCS_SIZE":"LARGE","REV_AT_EPOCH":"2625","SITE":"AFETR","BSTAR":"-0.00005633500000","MEAN_MOTION":"15.06389293","DECAY_DATE":null},{"MEAN_ELEMENT_THEORY":"SGP4","EPHEMERIS_TYPE":"0","TLE_LINE1":"1 47878U 21021U   21236.94777449 -.00000959  00000-0 -45495-4 0  9991","ARG_OF_PERICENTER":"68.4003","REF_FRAME":"TEME","CENTER_NAME":"EARTH","LAUNCH_DATE":"2021-03-14","MEAN_ANOMALY":"291.7186","GP_ID":"183387066","SEMIMAJOR_AXIS":"6925.380","CLASSIFICATION_TYPE":"U","INCLINATION":"53.0560","TIME_SYSTEM":"UTC","FILE":"3102580","OBJECT_ID":"2021-021U","MEAN_MOTION_DOT":"-0.00000959","NORAD_CAT_ID":"47878","SITE":"AFETR","BSTAR":"-0.00004549500000","OBJECT_TYPE":"PAYLOAD","ECCENTRICITY":"0.00018840","REV_AT_EPOCH":"2612","RCS_SIZE":"LARGE","MEAN_MOTION":"15.06389807","DECAY_DATE":null,"COUNTRY_CODE":"US","MEAN_MOTION_DDOT":"0.0000000000000","OBJECT_NAME":"STARLINK-2335","ELEMENT_SET_NO":"999","PERIOD":"95.593","EPOCH":"2021-08-24T22:44:47.715936","RA_OF_ASC_NODE":"153.4992","TLE_LINE2":"2 47878  53.0560 153.4992 0001884  68.4003 291.7186 15.06389807 26122","APOAPSIS":"548.550","PERIAPSIS":"545.940"}];
